GLOBALSTAR M035         
1 25851U 99037A   26023.95229587 -.00000098  00000+0 -12908-2 0  9999
2 25851  51.9959 282.6396 0013814 344.1030 131.5210 11.04541553120655
GLOBALSTAR M032         
1 25852U 99037B   26023.87100277 -.00000193  00000+0 -40646-2 0  9991
2 25852  51.9959  92.7901 0013064 177.4538 182.6330 11.19069984159498
GLOBALSTAR M051         
1 25853U 99037C   26023.93669055 -.00000063  00000+0  20839-3 0  9991
2 25853  51.9761 228.3618 0001164  81.3659 278.7284 11.42199901157613
GLOBALSTAR M030         
1 25854U 99037D   26023.65990680 -.00000124  00000+0 -10385-2 0  9995
2 25854  51.9903  21.1100 0003506  78.0433 282.0777 11.55109852175527
GLOBALSTAR M048         
1 25872U 99041A   26023.79440792 -.00000062  00000+0  22718-3 0  9993
2 25872  51.9340 172.2639 0013087 201.3162 307.5140 11.33861868150003
GLOBALSTAR M026         
1 25873U 99041B   26023.80357319 -.00000105  00000+0 -14919-2 0  9990
2 25873  52.0029  38.5966 0001755 274.0158 256.8585 11.06842480172910
GLOBALSTAR M043         
1 25874U 99041C   26023.93756911 -.00000058  00000+0  30060-3 0  9998
2 25874  51.9410 288.3676 0013564 331.1992 134.6880 11.25696132147733
GLOBALSTAR M028         
1 25875U 99041D   26023.90253829 -.00000079  00000+0  13671-3 0  9998
2 25875  51.9611 254.9251 0062892 190.1150 169.8449 12.50594691217793
