<?xml version="1.0" encoding="UTF-8"?>
<ndm xmlns:xsi="http://www.w3.org/2001/XMLSchema-instance" xsi:noNamespaceSchemaLocation="https://sanaregistry.org/r/ndmxml_unqualified/ndmxml-2.0.0-master-2.0.xsd">
<omm id="CCSDS_OMM_VERS" version="2.0">
<header><CREATION_DATE/><ORIGINATOR/></header><body><segment><metadata><OBJECT_NAME>GLOBALSTAR M035</OBJECT_NAME><OBJECT_ID>1999-037A</OBJECT_ID><CENTER_NAME>EARTH</CENTER_NAME><REF_FRAME>TEME</REF_FRAME><TIME_SYSTEM>UTC</TIME_SYSTEM><MEAN_ELEMENT_THEORY>SGP4</MEAN_ELEMENT_THEORY></metadata><data><meanElements><EPOCH>2026-01-23T22:51:18.363168</EPOCH><MEAN_MOTION>11.04541553</MEAN_MOTION><ECCENTRICITY>.00138142</ECCENTRICITY><INCLINATION>51.9959</INCLINATION><RA_OF_ASC_NODE>282.6396</RA_OF_ASC_NODE><ARG_OF_PERICENTER>344.1030</ARG_OF_PERICENTER><MEAN_ANOMALY>131.5210</MEAN_ANOMALY></meanElements><tleParameters><EPHEMERIS_TYPE>0</EPHEMERIS_TYPE><CLASSIFICATION_TYPE>U</CLASSIFICATION_TYPE><NORAD_CAT_ID>25851</NORAD_CAT_ID><ELEMENT_SET_NO>999</ELEMENT_SET_NO><REV_AT_EPOCH>12065</REV_AT_EPOCH><BSTAR>-.12908198E-2</BSTAR><MEAN_MOTION_DOT>-.98E-6</MEAN_MOTION_DOT><MEAN_MOTION_DDOT>0</MEAN_MOTION_DDOT></tleParameters></data></segment></body></omm>
<omm id="CCSDS_OMM_VERS" version="2.0">
<header><CREATION_DATE/><ORIGINATOR/></header><body><segment><metadata><OBJECT_NAME>GLOBALSTAR M032</OBJECT_NAME><OBJECT_ID>1999-037B</OBJECT_ID><CENTER_NAME>EARTH</CENTER_NAME><REF_FRAME>TEME</REF_FRAME><TIME_SYSTEM>UTC</TIME_SYSTEM><MEAN_ELEMENT_THEORY>SGP4</MEAN_ELEMENT_THEORY></metadata><data><meanElements><EPOCH>2026-01-23T20:54:14.639328</EPOCH><MEAN_MOTION>11.19069984</MEAN_MOTION><ECCENTRICITY>.00130647</ECCENTRICITY><INCLINATION>51.9959</INCLINATION><RA_OF_ASC_NODE>92.7901</RA_OF_ASC_NODE><ARG_OF_PERICENTER>177.4538</ARG_OF_PERICENTER><MEAN_ANOMALY>182.6330</MEAN_ANOMALY></meanElements><tleParameters><EPHEMERIS_TYPE>0</EPHEMERIS_TYPE><CLASSIFICATION_TYPE>U</CLASSIFICATION_TYPE><NORAD_CAT_ID>25852</NORAD_CAT_ID><ELEMENT_SET_NO>999</ELEMENT_SET_NO><REV_AT_EPOCH>15949</REV_AT_EPOCH><BSTAR>-.40645603E-2</BSTAR><MEAN_MOTION_DOT>-.193E-5</MEAN_MOTION_DOT><MEAN_MOTION_DDOT>0</MEAN_MOTION_DDOT></tleParameters></data></segment></body></omm>
<omm id="CCSDS_OMM_VERS" version="2.0">
<header><CREATION_DATE/><ORIGINATOR/></header><body><segment><metadata><OBJECT_NAME>GLOBALSTAR M051</OBJECT_NAME><OBJECT_ID>1999-037C</OBJECT_ID><CENTER_NAME>EARTH</CENTER_NAME><REF_FRAME>TEME</REF_FRAME><TIME_SYSTEM>UTC</TIME_SYSTEM><MEAN_ELEMENT_THEORY>SGP4</MEAN_ELEMENT_THEORY></metadata><data><meanElements><EPOCH>2026-01-23T22:28:50.063520</EPOCH><MEAN_MOTION>11.42199901</MEAN_MOTION><ECCENTRICITY>.00011649</ECCENTRICITY><INCLINATION>51.9761</INCLINATION><RA_OF_ASC_NODE>228.3618</RA_OF_ASC_NODE><ARG_OF_PERICENTER>81.3659</ARG_OF_PERICENTER><MEAN_ANOMALY>278.7284</MEAN_ANOMALY></meanElements><tleParameters><EPHEMERIS_TYPE>0</EPHEMERIS_TYPE><CLASSIFICATION_TYPE>U</CLASSIFICATION_TYPE><NORAD_CAT_ID>25853</NORAD_CAT_ID><ELEMENT_SET_NO>999</ELEMENT_SET_NO><REV_AT_EPOCH>15761</REV_AT_EPOCH><BSTAR>.20839133E-3</BSTAR><MEAN_MOTION_DOT>-.63E-6</MEAN_MOTION_DOT><MEAN_MOTION_DDOT>0</MEAN_MOTION_DDOT></tleParameters></data></segment></body></omm>
<omm id="CCSDS_OMM_VERS" version="2.0">
<header><CREATION_DATE/><ORIGINATOR/></header><body><segment><metadata><OBJECT_NAME>GLOBALSTAR M030</OBJECT_NAME><OBJECT_ID>1999-037D</OBJECT_ID><CENTER_NAME>EARTH</CENTER_NAME><REF_FRAME>TEME</REF_FRAME><TIME_SYSTEM>UTC</TIME_SYSTEM><MEAN_ELEMENT_THEORY>SGP4</MEAN_ELEMENT_THEORY></metadata><data><meanElements><EPOCH>2026-01-23T15:50:15.947520</EPOCH><MEAN_MOTION>11.55109852</MEAN_MOTION><ECCENTRICITY>.00035062</ECCENTRICITY><INCLINATION>51.9903</INCLINATION><RA_OF_ASC_NODE>21.1100</RA_OF_ASC_NODE><ARG_OF_PERICENTER>78.0433</ARG_OF_PERICENTER><MEAN_ANOMALY>282.0777</MEAN_ANOMALY></meanElements><tleParameters><EPHEMERIS_TYPE>0</EPHEMERIS_TYPE><CLASSIFICATION_TYPE>U</CLASSIFICATION_TYPE><NORAD_CAT_ID>25854</NORAD_CAT_ID><ELEMENT_SET_NO>999</ELEMENT_SET_NO><REV_AT_EPOCH>17552</REV_AT_EPOCH><BSTAR>-.10385392E-2</BSTAR><MEAN_MOTION_DOT>-.124E-5</MEAN_MOTION_DOT><MEAN_MOTION_DDOT>0</MEAN_MOTION_DDOT></tleParameters></data></segment></body></omm>
<omm id="CCSDS_OMM_VERS" version="2.0">
<header><CREATION_DATE/><ORIGINATOR/></header><body><segment><metadata><OBJECT_NAME>GLOBALSTAR M048</OBJECT_NAME><OBJECT_ID>1999-041A</OBJECT_ID><CENTER_NAME>EARTH</CENTER_NAME><REF_FRAME>TEME</REF_FRAME><TIME_SYSTEM>UTC</TIME_SYSTEM><MEAN_ELEMENT_THEORY>SGP4</MEAN_ELEMENT_THEORY></metadata><data><meanElements><EPOCH>2026-01-23T19:03:56.844288</EPOCH><MEAN_MOTION>11.33861868</MEAN_MOTION><ECCENTRICITY>.0013087</ECCENTRICITY><INCLINATION>51.9340</INCLINATION><RA_OF_ASC_NODE>172.2639</RA_OF_ASC_NODE><ARG_OF_PERICENTER>201.3162</ARG_OF_PERICENTER><MEAN_ANOMALY>307.5140</MEAN_ANOMALY></meanElements><tleParameters><EPHEMERIS_TYPE>0</EPHEMERIS_TYPE><CLASSIFICATION_TYPE>U</CLASSIFICATION_TYPE><NORAD_CAT_ID>25872</NORAD_CAT_ID><ELEMENT_SET_NO>999</ELEMENT_SET_NO><REV_AT_EPOCH>15000</REV_AT_EPOCH><BSTAR>.22718304E-3</BSTAR><MEAN_MOTION_DOT>-.62E-6</MEAN_MOTION_DOT><MEAN_MOTION_DDOT>0</MEAN_MOTION_DDOT></tleParameters></data></segment></body></omm>
<omm id="CCSDS_OMM_VERS" version="2.0">
<header><CREATION_DATE/><ORIGINATOR/></header><body><segment><metadata><OBJECT_NAME>GLOBALSTAR M026</OBJECT_NAME><OBJECT_ID>1999-041B</OBJECT_ID><CENTER_NAME>EARTH</CENTER_NAME><REF_FRAME>TEME</REF_FRAME><TIME_SYSTEM>UTC</TIME_SYSTEM><MEAN_ELEMENT_THEORY>SGP4</MEAN_ELEMENT_THEORY></metadata><data><meanElements><EPOCH>2026-01-23T19:17:08.723616</EPOCH><MEAN_MOTION>11.06842480</MEAN_MOTION><ECCENTRICITY>.00017558</ECCENTRICITY><INCLINATION>52.0029</INCLINATION><RA_OF_ASC_NODE>38.5966</RA_OF_ASC_NODE><ARG_OF_PERICENTER>274.0158</ARG_OF_PERICENTER><MEAN_ANOMALY>256.8585</MEAN_ANOMALY></meanElements><tleParameters><EPHEMERIS_TYPE>0</EPHEMERIS_TYPE><CLASSIFICATION_TYPE>U</CLASSIFICATION_TYPE><NORAD_CAT_ID>25873</NORAD_CAT_ID><ELEMENT_SET_NO>999</ELEMENT_SET_NO><REV_AT_EPOCH>17291</REV_AT_EPOCH><BSTAR>-.14918651E-2</BSTAR><MEAN_MOTION_DOT>-.105E-5</MEAN_MOTION_DOT><MEAN_MOTION_DDOT>0</MEAN_MOTION_DDOT></tleParameters></data></segment></body></omm>
<omm id="CCSDS_OMM_VERS" version="2.0">
<header><CREATION_DATE/><ORIGINATOR/></header><body><segment><metadata><OBJECT_NAME>GLOBALSTAR M043</OBJECT_NAME><OBJECT_ID>1999-041C</OBJECT_ID><CENTER_NAME>EARTH</CENTER_NAME><REF_FRAME>TEME</REF_FRAME><TIME_SYSTEM>UTC</TIME_SYSTEM><MEAN_ELEMENT_THEORY>SGP4</MEAN_ELEMENT_THEORY></metadata><data><meanElements><EPOCH>2026-01-23T22:30:05.971104</EPOCH><MEAN_MOTION>11.25696132</MEAN_MOTION><ECCENTRICITY>.00135645</ECCENTRICITY><INCLINATION>51.9410</INCLINATION><RA_OF_ASC_NODE>288.3676</RA_OF_ASC_NODE><ARG_OF_PERICENTER>331.1992</ARG_OF_PERICENTER><MEAN_ANOMALY>134.6880</MEAN_ANOMALY></meanElements><tleParameters><EPHEMERIS_TYPE>0</EPHEMERIS_TYPE><CLASSIFICATION_TYPE>U</CLASSIFICATION_TYPE><NORAD_CAT_ID>25874</NORAD_CAT_ID><ELEMENT_SET_NO>999</ELEMENT_SET_NO><REV_AT_EPOCH>14773</REV_AT_EPOCH><BSTAR>.30060043E-3</BSTAR><MEAN_MOTION_DOT>-.58E-6</MEAN_MOTION_DOT><MEAN_MOTION_DDOT>0</MEAN_MOTION_DDOT></tleParameters></data></segment></body></omm>
<omm id="CCSDS_OMM_VERS" version="2.0">
<header><CREATION_DATE/><ORIGINATOR/></header><body><segment><metadata><OBJECT_NAME>GLOBALSTAR M028</OBJECT_NAME><OBJECT_ID>1999-041D</OBJECT_ID><CENTER_NAME>EARTH</CENTER_NAME><REF_FRAME>TEME</REF_FRAME><TIME_SYSTEM>UTC</TIME_SYSTEM><MEAN_ELEMENT_THEORY>SGP4</MEAN_ELEMENT_THEORY></metadata><data><meanElements><EPOCH>2026-01-23T21:39:39.308256</EPOCH><MEAN_MOTION>12.50594691</MEAN_MOTION><ECCENTRICITY>.00628926</ECCENTRICITY><INCLINATION>51.9611</INCLINATION><RA_OF_ASC_NODE>254.9251</RA_OF_ASC_NODE><ARG_OF_PERICENTER>190.1150</ARG_OF_PERICENTER><MEAN_ANOMALY>169.8449</MEAN_ANOMALY></meanElements><tleParameters><EPHEMERIS_TYPE>0</EPHEMERIS_TYPE><CLASSIFICATION_TYPE>U</CLASSIFICATION_TYPE><NORAD_CAT_ID>25875</NORAD_CAT_ID><ELEMENT_SET_NO>999</ELEMENT_SET_NO><REV_AT_EPOCH>21779</REV_AT_EPOCH><BSTAR>.13670623E-3</BSTAR><MEAN_MOTION_DOT>-.79E-6</MEAN_MOTION_DOT><MEAN_MOTION_DDOT>0</MEAN_MOTION_DDOT></tleParameters></data></segment></body></omm>

</ndm>
